LEMUR-2-PETERG          
1 42841U 17042S   26068.48235713  .00023240  00000+0  81076-3 0  9993
2 42841  97.3980 253.6596 0003700 341.6938  18.4169 15.29611459473171
STARLINK-32862          
1 62864U 25022L   26068.53769444  .00011000  00000+0  38389-3 0  9996
2 62864  53.1575 130.5473 0000611 156.5334 203.5695 15.30119489 61875
